APRIZESAT 2             
1 28366U 04025A   26184.91440785  .00000275  00000+0  98487-4 0  9998
2 28366  98.1030 349.9491 0105156 198.9223 160.8046 14.38043501154047
SAUDICOMSAT 1           
1 28369U 04025D   26185.47767512  .00000572  00000+0  14207-3 0  9990
2 28369  98.5771 196.0757 0031513 332.6285  27.3250 14.55488699166645
SAUDICOMSAT 2           
1 28370U 04025E   26185.03170394  .00000269  00000+0  80818-4 0  9995
2 28370  98.6639 197.7542 0054858 207.6478 152.1795 14.49990206162544
APRIZESAT 1             
1 28372U 04025G   26184.83579126  .00000341  00000+0  95785-4 0  9990
2 28372  98.6304 196.0144 0045747 104.2953 256.3328 14.51787039164320
NANOSAT-1               
1 28493U 04049B   26184.79879215  .00001225  00000+0  16856-3 0  9990
2 28493  98.2298 321.8678 0002985 225.9048 134.1918 14.80193523157900
SAUDICOMSAT 7           
1 31119U 07012C   26185.17484396  .00000677  00000+0  12979-3 0  9999
2 31119  98.3788 159.6549 0056466 142.1645 218.3548 14.66127864 24922
SAUDICOMSAT 6           
1 31121U 07012E   26184.85148667  .00000563  00000+0  11734-3 0  9996
2 31121  98.4107 152.6789 0070381 275.0888  84.2283 14.62576721 22624
SAUDICOMSAT 5           
1 31124U 07012H   26185.19266899  .00000890  00000+0  16106-3 0  9996
2 31124  98.3500 160.4166 0048676  72.6123 288.0396 14.68180914 26099
SAUDICOMSAT 3           
1 31125U 07012J   26185.39581196  .00001064  00000+0  18123-3 0  9994
2 31125  98.3154 161.1710 0039090 359.6889   0.4286 14.70736943 27351
SAUDICOMSAT 4           
1 31127U 07012L   26185.37193339  .00000538  00000+0  10855-3 0  9991
2 31127  98.3994 158.2938 0062800 203.6502 156.1810 14.64528333 23802
APRIZESAT 4             
1 35684U 09041D   26185.45201468  .00000858  00000+0  10885-3 0  9997
2 35684  98.1408 261.1164 0041908 265.4150  94.2275 14.83902871913920
APRIZESAT 3             
1 35686U 09041F   26185.15175865  .00001384  00000+0  12380-3 0  9994
2 35686  98.2080 339.1904 0061751  12.1152 348.1536 14.96286521918910
S-NET D                 
1 43186U 18014G   26185.48271858  .00009180  00000+0  46959-3 0  9994
2 43186  97.5342  90.1654 0006988 330.2368  29.8466 15.16844458461388
S-NET B                 
1 43187U 18014H   26185.16466080  .00006505  00000+0  33423-3 0  9993
2 43187  97.5348  89.8363 0007562 325.2617  34.8121 15.16805289461335
S-NET A                 
1 43188U 18014J   26185.48150044  .00009299  00000+0  47549-3 0  9996
2 43188  97.5358  90.3636 0007418 325.0367  35.0378 15.16853371461384
S-NET C                 
1 43189U 18014K   26184.70683086  .00005845  00000+0  30072-3 0  9994
2 43189  97.5379  89.6708 0008639 318.2558  41.8015 15.16791813459811
SALSAT                  
1 46495U 20068K   26185.47776598  .00013616  00000+0  47010-3 0  9990
2 46495  97.8855 189.5980 0008208 234.4468 125.6006 15.30057656318001
OOV-CUBE (TUBSAT-30)    
1 60240U 24128F   26185.35527502  .00002684  00000+0  21119-3 0  9996
2 60240  61.9937 165.7051 0042468 137.5285 222.9106 15.02839523108693
LPNTSAT-001 (IOD-1)     
1 68408U 26065A   26185.40661808  .00003501  00000+0  17196-3 0  9995
2 68408  97.3994  65.5512 0014978 308.3428  51.6459 15.18627871 14876
